CCSDS_OMM_VERS = 2.0
CREATION_DATE  = 
ORIGINATOR     = 

OBJECT_NAME    = STARLINK-36332
OBJECT_ID      = 2026-034N
CENTER_NAME    = EARTH
REF_FRAME      = TEME
TIME_SYSTEM    = UTC
MEAN_ELEMENT_THEORY = SGP/SGP4

EPOCH          = 2026-03-06T01:20:29.791104
MEAN_MOTION    = 15.80974764
ECCENTRICITY   = .00016121
INCLINATION    = 53.1594
RA_OF_ASC_NODE = 229.4620
ARG_OF_PERICENTER = 25.2383
MEAN_ANOMALY   = 334.8719

EPHEMERIS_TYPE = 0
CLASSIFICATION_TYPE = U
NORAD_CAT_ID   = 67862
ELEMENT_SET_NO = 999
REV_AT_EPOCH   = 336
BSTAR          = .13773054E-2
MEAN_MOTION_DOT = .281501E-2
MEAN_MOTION_DDOT = 0

CCSDS_OMM_VERS = 2.0
CREATION_DATE  = 
ORIGINATOR     = 

OBJECT_NAME    = STARLINK-36835
OBJECT_ID      = 2026-034P
CENTER_NAME    = EARTH
REF_FRAME      = TEME
TIME_SYSTEM    = UTC
MEAN_ELEMENT_THEORY = SGP/SGP4

EPOCH          = 2026-03-06T01:19:24.530592
MEAN_MOTION    = 15.80974581
ECCENTRICITY   = .00006355
INCLINATION    = 53.1596
RA_OF_ASC_NODE = 229.4556
ARG_OF_PERICENTER = 50.3911
MEAN_ANOMALY   = 309.7168

EPHEMERIS_TYPE = 0
CLASSIFICATION_TYPE = U
NORAD_CAT_ID   = 67863
ELEMENT_SET_NO = 999
REV_AT_EPOCH   = 336
BSTAR          = .12003503E-2
MEAN_MOTION_DOT = .244176E-2
MEAN_MOTION_DDOT = 0

CCSDS_OMM_VERS = 2.0
CREATION_DATE  = 
ORIGINATOR     = 

OBJECT_NAME    = STARLINK-36831
OBJECT_ID      = 2026-034Q
CENTER_NAME    = EARTH
REF_FRAME      = TEME
TIME_SYSTEM    = UTC
MEAN_ELEMENT_THEORY = SGP/SGP4

EPOCH          = 2026-03-06T04:20:24.369504
MEAN_MOTION    = 15.80974847
ECCENTRICITY   = .00014432
INCLINATION    = 53.1590
RA_OF_ASC_NODE = 228.8170
ARG_OF_PERICENTER = 59.2107
MEAN_ANOMALY   = 300.9058

EPHEMERIS_TYPE = 0
CLASSIFICATION_TYPE = U
NORAD_CAT_ID   = 67864
ELEMENT_SET_NO = 999
REV_AT_EPOCH   = 338
BSTAR          = .1758871E-2
MEAN_MOTION_DOT = .363144E-2
MEAN_MOTION_DDOT = 0

CCSDS_OMM_VERS = 2.0
CREATION_DATE  = 
ORIGINATOR     = 

OBJECT_NAME    = STARLINK-36738
OBJECT_ID      = 2026-034R
CENTER_NAME    = EARTH
REF_FRAME      = TEME
TIME_SYSTEM    = UTC
MEAN_ELEMENT_THEORY = SGP/SGP4

EPOCH          = 2026-03-06T04:19:19.644672
MEAN_MOTION    = 15.80979739
ECCENTRICITY   = .00007033
INCLINATION    = 53.1595
RA_OF_ASC_NODE = 228.8116
ARG_OF_PERICENTER = 75.9680
MEAN_ANOMALY   = 284.1421

EPHEMERIS_TYPE = 0
CLASSIFICATION_TYPE = U
NORAD_CAT_ID   = 67865
ELEMENT_SET_NO = 999
REV_AT_EPOCH   = 338
BSTAR          = .16497477E-2
MEAN_MOTION_DOT = .339725E-2
MEAN_MOTION_DDOT = 0

CCSDS_OMM_VERS = 2.0
CREATION_DATE  = 
ORIGINATOR     = 

OBJECT_NAME    = STARLINK-36780
OBJECT_ID      = 2026-034S
CENTER_NAME    = EARTH
REF_FRAME      = TEME
TIME_SYSTEM    = UTC
MEAN_ELEMENT_THEORY = SGP/SGP4

EPOCH          = 2026-03-06T01:16:09.951744
MEAN_MOTION    = 15.80986816
ECCENTRICITY   = .00019878
INCLINATION    = 53.1600
RA_OF_ASC_NODE = 229.4395
ARG_OF_PERICENTER = 37.5801
MEAN_ANOMALY   = 322.5360

EPHEMERIS_TYPE = 0
CLASSIFICATION_TYPE = U
NORAD_CAT_ID   = 67866
ELEMENT_SET_NO = 999
REV_AT_EPOCH   = 336
BSTAR          = .11202131E-2
MEAN_MOTION_DOT = .227512E-2
MEAN_MOTION_DDOT = 0

CCSDS_OMM_VERS = 2.0
CREATION_DATE  = 
ORIGINATOR     = 

OBJECT_NAME    = STARLINK-36761
OBJECT_ID      = 2026-034T
CENTER_NAME    = EARTH
REF_FRAME      = TEME
TIME_SYSTEM    = UTC
MEAN_ELEMENT_THEORY = SGP/SGP4

EPOCH          = 2026-03-06T01:15:05.629536
MEAN_MOTION    = 15.80917806
ECCENTRICITY   = .00006658
INCLINATION    = 53.1600
RA_OF_ASC_NODE = 229.4341
ARG_OF_PERICENTER = 45.3541
MEAN_ANOMALY   = 314.7536

EPHEMERIS_TYPE = 0
CLASSIFICATION_TYPE = U
NORAD_CAT_ID   = 67867
ELEMENT_SET_NO = 999
REV_AT_EPOCH   = 336
BSTAR          = .66725794E-3
MEAN_MOTION_DOT = .133322E-2
MEAN_MOTION_DDOT = 0

CCSDS_OMM_VERS = 2.0
CREATION_DATE  = 
ORIGINATOR     = 

OBJECT_NAME    = STARLINK-36762
OBJECT_ID      = 2026-034U
CENTER_NAME    = EARTH
REF_FRAME      = TEME
TIME_SYSTEM    = UTC
MEAN_ELEMENT_THEORY = SGP/SGP4

EPOCH          = 2026-03-06T04:16:04.223424
MEAN_MOTION    = 15.80937465
ECCENTRICITY   = .00017991
INCLINATION    = 53.1596
RA_OF_ASC_NODE = 228.7959
ARG_OF_PERICENTER = 59.6969
MEAN_ANOMALY   = 300.4232

EPHEMERIS_TYPE = 0
CLASSIFICATION_TYPE = U
NORAD_CAT_ID   = 67868
ELEMENT_SET_NO = 999
REV_AT_EPOCH   = 338
BSTAR          = .1743495E-2
MEAN_MOTION_DOT = .359174E-2
MEAN_MOTION_DDOT = 0

CCSDS_OMM_VERS = 2.0
CREATION_DATE  = 
ORIGINATOR     = 

OBJECT_NAME    = STARLINK-36779
OBJECT_ID      = 2026-034V
CENTER_NAME    = EARTH
REF_FRAME      = TEME
TIME_SYSTEM    = UTC
MEAN_ELEMENT_THEORY = SGP/SGP4

EPOCH          = 2026-03-06T00:00:02.000160
MEAN_MOTION    = 15.80845266
ECCENTRICITY   = .00012677
INCLINATION    = 53.1594
RA_OF_ASC_NODE = 229.6791
ARG_OF_PERICENTER = 64.3481
MEAN_ANOMALY   = 7.4784

EPHEMERIS_TYPE = 0
CLASSIFICATION_TYPE = U
NORAD_CAT_ID   = 67869
ELEMENT_SET_NO = 999
REV_AT_EPOCH   = 326
BSTAR          = .31738147E-3
MEAN_MOTION_DOT = .62315E-3
MEAN_MOTION_DDOT = 0

CCSDS_OMM_VERS = 2.0
CREATION_DATE  = 
ORIGINATOR     = 

OBJECT_NAME    = STARLINK-36770
OBJECT_ID      = 2026-034W
CENTER_NAME    = EARTH
REF_FRAME      = TEME
TIME_SYSTEM    = UTC
MEAN_ELEMENT_THEORY = SGP/SGP4

EPOCH          = 2026-03-06T00:00:02.000160
MEAN_MOTION    = 15.80821612
ECCENTRICITY   = .00004967
INCLINATION    = 53.1595
RA_OF_ASC_NODE = 229.6606
ARG_OF_PERICENTER = 40.6299
MEAN_ANOMALY   = 39.7595

EPHEMERIS_TYPE = 0
CLASSIFICATION_TYPE = U
NORAD_CAT_ID   = 67870
ELEMENT_SET_NO = 999
REV_AT_EPOCH   = 326
BSTAR          = .39655096E-3
MEAN_MOTION_DOT = .78091E-3
MEAN_MOTION_DDOT = 0

CCSDS_OMM_VERS = 2.0
CREATION_DATE  = 
ORIGINATOR     = 

OBJECT_NAME    = STARLINK-36769
OBJECT_ID      = 2026-034X
CENTER_NAME    = EARTH
REF_FRAME      = TEME
TIME_SYSTEM    = UTC
MEAN_ELEMENT_THEORY = SGP/SGP4

EPOCH          = 2026-03-06T01:11:51.121536
MEAN_MOTION    = 15.80926897
ECCENTRICITY   = .00014926
INCLINATION    = 53.1599
RA_OF_ASC_NODE = 229.4185
ARG_OF_PERICENTER = 32.1532
MEAN_ANOMALY   = 327.9581

EPHEMERIS_TYPE = 0
CLASSIFICATION_TYPE = U
NORAD_CAT_ID   = 67871
ELEMENT_SET_NO = 999
REV_AT_EPOCH   = 336
BSTAR          = .7389226E-3
MEAN_MOTION_DOT = .148035E-2
MEAN_MOTION_DDOT = 0

CCSDS_OMM_VERS = 2.0
CREATION_DATE  = 
ORIGINATOR     = 

OBJECT_NAME    = STARLINK-36786
OBJECT_ID      = 2026-034Y
CENTER_NAME    = EARTH
REF_FRAME      = TEME
TIME_SYSTEM    = UTC
MEAN_ELEMENT_THEORY = SGP/SGP4

EPOCH          = 2026-03-06T04:11:46.181184
MEAN_MOTION    = 15.80956737
ECCENTRICITY   = .00017659
INCLINATION    = 53.1598
RA_OF_ASC_NODE = 228.7752
ARG_OF_PERICENTER = 54.3116
MEAN_ANOMALY   = 305.8070

EPHEMERIS_TYPE = 0
CLASSIFICATION_TYPE = U
NORAD_CAT_ID   = 67872
ELEMENT_SET_NO = 999
REV_AT_EPOCH   = 338
BSTAR          = .14293197E-2
MEAN_MOTION_DOT = .292285E-2
MEAN_MOTION_DDOT = 0

CCSDS_OMM_VERS = 2.0
CREATION_DATE  = 
ORIGINATOR     = 

OBJECT_NAME    = STARLINK-36783
OBJECT_ID      = 2026-034Z
CENTER_NAME    = EARTH
REF_FRAME      = TEME
TIME_SYSTEM    = UTC
MEAN_ELEMENT_THEORY = SGP/SGP4

EPOCH          = 2026-03-06T00:00:02.000160
MEAN_MOTION    = 15.80831028
ECCENTRICITY   = .00011477
INCLINATION    = 53.1594
RA_OF_ASC_NODE = 229.6429
ARG_OF_PERICENTER = 50.7538
MEAN_ANOMALY   = 38.1696

EPHEMERIS_TYPE = 0
CLASSIFICATION_TYPE = U
NORAD_CAT_ID   = 67873
ELEMENT_SET_NO = 999
REV_AT_EPOCH   = 326
BSTAR          = .33883655E-3
MEAN_MOTION_DOT = .66563E-3
MEAN_MOTION_DDOT = 0

