STARLINK-36332          
1 67862U 26034N   26065.05590036  .00281501  00000+0  13773-2 0  9990
2 67862  53.1594 229.4620 0001612  25.2383 334.8719 15.80974764  3364
STARLINK-36835          
1 67863U 26034P   26065.05514503  .00244176  00000+0  12004-2 0  9999
2 67863  53.1596 229.4556 0000635  50.3911 309.7168 15.80974581  3361
STARLINK-36831          
1 67864U 26034Q   26065.18083761  .00363144  00000+0  17589-2 0  9991
2 67864  53.1590 228.8170 0001443  59.2107 300.9058 15.80974847  3382
STARLINK-36738          
1 67865U 26034R   26065.18008848  .00339725  00000+0  16497-2 0  9990
2 67865  53.1595 228.8116 0000703  75.9680 284.1421 15.80979739  3389
STARLINK-36780          
1 67866U 26034S   26065.05289296  .00227512  00000+0  11202-2 0  9994
2 67866  53.1600 229.4395 0001987  37.5801 322.5360 15.80986816  3368
STARLINK-36761          
1 67867U 26034T   26065.05214849  .00133322  00000+0  66726-3 0  9994
2 67867  53.1600 229.4341 0000665  45.3541 314.7536 15.80917806  3361
STARLINK-36762          
1 67868U 26034U   26065.17782666  .00359174  00000+0  17435-2 0  9992
2 67868  53.1596 228.7959 0001799  59.6969 300.4232 15.80937465  3384
STARLINK-36779          
1 67869U 26034V   26065.00002315  .00062315  00000+0  31738-3 0  9992
2 67869  53.1594 229.6791 0001267  64.3481   7.4784 15.80845266  3269
STARLINK-36770          
1 67870U 26034W   26065.00002315  .00078091  00000+0  39655-3 0  9998
2 67870  53.1595 229.6606 0000496  40.6299  39.7595 15.80821612  3261
STARLINK-36769          
1 67871U 26034X   26065.04989724  .00148035  00000+0  73892-3 0  9998
2 67871  53.1599 229.4185 0001492  32.1532 327.9581 15.80926897  3368
STARLINK-36786          
1 67872U 26034Y   26065.17484006  .00292285  00000+0  14293-2 0  9992
2 67872  53.1598 228.7752 0001765  54.3116 305.8070 15.80956737  3383
STARLINK-36783          
1 67873U 26034Z   26065.00002315  .00066563  00000+0  33884-3 0  9990
2 67873  53.1594 229.6429 0001147  50.7538  38.1696 15.80831028  3265
